start=new Date('2021-11-14T00:00:00.000Z').valueOf();
sats=[{"PERIAPSIS":"545.999","EPOCH":"2021-11-13T15:10:08.906592","TLE_LINE1":"1 47595U 21009AZ  21317.63204753  .00004259  00000-0  30457-3 0  9998","CLASSIFICATION_TYPE":"U","MEAN_ANOMALY":"294.2131","CENTER_NAME":"EARTH","DECAY_DATE":null,"TIME_SYSTEM":"UTC","OBJECT_ID":"2021-009AZ","EPHEMERIS_TYPE":"0","COUNTRY_CODE":"US","MEAN_MOTION":"15.06405446","MEAN_ELEMENT_THEORY":"SGP4","LAUNCH_DATE":"2021-02-04","OBJECT_NAME":"STARLINK-2000","SEMIMAJOR_AXIS":"6925.332","RCS_SIZE":"LARGE","BSTAR":"0.00030457000000","REV_AT_EPOCH":"4281","INCLINATION":"53.0539","APOAPSIS":"548.394","NORAD_CAT_ID":"47595","MEAN_MOTION_DDOT":"0.0000000000000","RA_OF_ASC_NODE":"281.3141","ECCENTRICITY":"0.00017290","FILE":"3214514","SITE":"AFETR","REF_FRAME":"TEME","TLE_LINE2":"2 47595  53.0539 281.3141 0001729  65.9038 294.2131 15.06405446 42819","PERIOD":"95.592","ARG_OF_PERICENTER":"65.9038","ELEMENT_SET_NO":"999","MEAN_MOTION_DOT":"0.00004259","OBJECT_TYPE":"PAYLOAD","GP_ID":"189712137"},{"GP_ID":"189712388","TLE_LINE2":"2 47596  53.0560 280.1018 0001523  77.3738 282.7421 15.06400402 42855","PERIOD":"95.592","ARG_OF_PERICENTER":"77.3738","ELEMENT_SET_NO":"999","OBJECT_TYPE":"PAYLOAD","MEAN_MOTION_DOT":"0.00000577","FILE":"3214514","SITE":"AFETR","REF_FRAME":"TEME","ECCENTRICITY":"0.00015230","RA_OF_ASC_NODE":"280.1018","APOAPSIS":"548.267","NORAD_CAT_ID":"47596","INCLINATION":"53.0560","MEAN_MOTION_DDOT":"0.0000000000000","BSTAR":"0.00005762800000","REV_AT_EPOCH":"4285","OBJECT_NAME":"STARLINK-2001","RCS_SIZE":"LARGE","SEMIMAJOR_AXIS":"6925.347","LAUNCH_DATE":"2021-02-04","OBJECT_ID":"2021-009BA","COUNTRY_CODE":"US","EPHEMERIS_TYPE":"0","MEAN_MOTION":"15.06400402","MEAN_ELEMENT_THEORY":"SGP4","CENTER_NAME":"EARTH","DECAY_DATE":null,"TIME_SYSTEM":"UTC","TLE_LINE1":"1 47596U 21009BA  21317.90112279  .00000577  00000-0  57628-4 0  9999","CLASSIFICATION_TYPE":"U","MEAN_ANOMALY":"282.7421","EPOCH":"2021-11-13T21:37:37.009056","PERIAPSIS":"546.158"},{"PERIAPSIS":"546.136","MEAN_ANOMALY":"289.7392","CLASSIFICATION_TYPE":"U","TLE_LINE1":"1 47597U 21009BB  21317.62837324  .00000122  00000-0  27099-4 0  9999","EPOCH":"2021-11-13T15:04:51.447936","MEAN_ELEMENT_THEORY":"SGP4","MEAN_MOTION":"15.06391727","COUNTRY_CODE":"US","EPHEMERIS_TYPE":"0","OBJECT_ID":"2021-009BB","TIME_SYSTEM":"UTC","DECAY_DATE":null,"CENTER_NAME":"EARTH","RCS_SIZE":"LARGE","SEMIMAJOR_AXIS":"6925.374","OBJECT_NAME":"STARLINK-2002","LAUNCH_DATE":"2021-02-04","MEAN_MOTION_DDOT":"0.0000000000000","APOAPSIS":"548.342","NORAD_CAT_ID":"47597","INCLINATION":"53.0560","REV_AT_EPOCH":"4281","BSTAR":"0.00002709900000","REF_FRAME":"TEME","FILE":"3214514","SITE":"AFETR","ECCENTRICITY":"0.00015930","RA_OF_ASC_NODE":"281.3299","GP_ID":"189712639","MEAN_MOTION_DOT":"0.00000122","OBJECT_TYPE":"PAYLOAD","ARG_OF_PERICENTER":"70.3769","ELEMENT_SET_NO":"999","PERIOD":"95.593","TLE_LINE2":"2 47597  53.0560 281.3299 0001593  70.3769 289.7392 15.06391727 42813"},{"CLASSIFICATION_TYPE":"U","TLE_LINE1":"1 47598U 21009BC  21317.90389593  .00000338  00000-0  41617-4 0  9992","MEAN_ANOMALY":"294.2577","EPOCH":"2021-11-13T21:41:36.608352","PERIAPSIS":"546.132","OBJECT_NAME":"STARLINK-2003","RCS_SIZE":"LARGE","SEMIMAJOR_AXIS":"6925.362","LAUNCH_DATE":"2021-02-04","OBJECT_ID":"2021-009BC","MEAN_ELEMENT_THEORY":"SGP4","COUNTRY_CODE":"US","EPHEMERIS_TYPE":"0","MEAN_MOTION":"15.06395551","DECAY_DATE":null,"CENTER_NAME":"EARTH","TIME_SYSTEM":"UTC","NORAD_CAT_ID":"47598","APOAPSIS":"548.322","INCLINATION":"53.0601","MEAN_MOTION_DDOT":"0.0000000000000","BSTAR":"0.00004161700000","REV_AT_EPOCH":"4328","GP_ID":"189711387","ARG_OF_PERICENTER":"65.8578","ELEMENT_SET_NO":"999","PERIOD":"95.592","TLE_LINE2":"2 47598  53.0601 250.0691 0001581  65.8578 294.2577 15.06395551 43280","MEAN_MOTION_DOT":"0.00000338","OBJECT_TYPE":"PAYLOAD","REF_FRAME":"TEME","FILE":"3214514","SITE":"AFETR","ECCENTRICITY":"0.00015810","RA_OF_ASC_NODE":"250.0691"},{"LAUNCH_DATE":"2021-02-04","SEMIMAJOR_AXIS":"6925.368","RCS_SIZE":"LARGE","OBJECT_NAME":"STARLINK-2004","TIME_SYSTEM":"UTC","DECAY_DATE":null,"CENTER_NAME":"EARTH","MEAN_ELEMENT_THEORY":"SGP4","COUNTRY_CODE":"US","MEAN_MOTION":"15.06393623","EPHEMERIS_TYPE":"0","OBJECT_ID":"2021-009BD","EPOCH":"2021-11-13T21:27:00.158976","MEAN_ANOMALY":"292.7567","CLASSIFICATION_TYPE":"U","TLE_LINE1":"1 47599U 21009BD  21317.89375184  .00000128  00000-0  27513-4 0  9998","PERIAPSIS":"546.142","OBJECT_TYPE":"PAYLOAD","MEAN_MOTION_DOT":"0.00000128","ARG_OF_PERICENTER":"67.3589","ELEMENT_SET_NO":"999","TLE_LINE2":"2 47599  53.0565 240.1278 0001575  67.3589 292.7567 15.06393623 43418","PERIOD":"95.593","GP_ID":"189711637","ECCENTRICITY":"0.00015750","RA_OF_ASC_NODE":"240.1278","REF_FRAME":"TEME","FILE":"3214514","SITE":"AFETR","REV_AT_EPOCH":"4341","BSTAR":"0.00002751300000","MEAN_MOTION_DDOT":"0.0000000000000","APOAPSIS":"548.324","NORAD_CAT_ID":"47599","INCLINATION":"53.0565"},{"MEAN_ELEMENT_THEORY":"SGP4","COUNTRY_CODE":"US","EPHEMERIS_TYPE":"0","MEAN_MOTION":"15.06412714","OBJECT_ID":"2021-009BE","TIME_SYSTEM":"UTC","DECAY_DATE":null,"CENTER_NAME":"EARTH","RCS_SIZE":"LARGE","SEMIMAJOR_AXIS":"6925.310","OBJECT_NAME":"STARLINK-2005","LAUNCH_DATE":"2021-02-04","PERIAPSIS":"543.235","MEAN_ANOMALY":"81.0066","CLASSIFICATION_TYPE":"U","TLE_LINE1":"1 47600U 21009BE  21317.52421275  .00008950  00000-0  61869-3 0  9996","EPOCH":"2021-11-13T12:34:51.981600","REF_FRAME":"TEME","SITE":"AFETR","FILE":"3214305","RA_OF_ASC_NODE":"241.7857","ECCENTRICITY":"0.00056880","GP_ID":"189685356","OBJECT_TYPE":"PAYLOAD","MEAN_MOTION_DOT":"0.00008950","ARG_OF_PERICENTER":"279.0279","ELEMENT_SET_NO":"999","TLE_LINE2":"2 47600  53.0581 241.7857 0005688 279.0279  81.0066 15.06412714 43973","PERIOD":"95.591","MEAN_MOTION_DDOT":"0.0000000000000","NORAD_CAT_ID":"47600","APOAPSIS":"551.114","INCLINATION":"53.0581","REV_AT_EPOCH":"4397","BSTAR":"0.00061869000000"},{"PERIAPSIS":"546.138","MEAN_ANOMALY":"294.3870","CLASSIFICATION_TYPE":"U","TLE_LINE1":"1 47601U 21009BF  21317.89744112  .00001481  00000-0  11833-3 0  9993","EPOCH":"2021-11-13T21:32:18.912768","MEAN_ELEMENT_THEORY":"SGP4","COUNTRY_CODE":"US","EPHEMERIS_TYPE":"0","MEAN_MOTION":"15.06391081","OBJECT_ID":"2021-009BF","TIME_SYSTEM":"UTC","DECAY_DATE":null,"CENTER_NAME":"EARTH","RCS_SIZE":"LARGE","SEMIMAJOR_AXIS":"6925.376","OBJECT_NAME":"STARLINK-2006","LAUNCH_DATE":"2021-02-04","MEAN_MOTION_DDOT":"0.0000000000000","NORAD_CAT_ID":"47601","APOAPSIS":"548.344","INCLINATION":"53.0561","REV_AT_EPOCH":"4341","BSTAR":"0.00011833000000","REF_FRAME":"TEME","FILE":"3214514","SITE":"AFETR","RA_OF_ASC_NODE":"240.1086","ECCENTRICITY":"0.00015930","GP_ID":"189713140","OBJECT_TYPE":"PAYLOAD","MEAN_MOTION_DOT":"0.00001481","ELEMENT_SET_NO":"999","ARG_OF_PERICENTER":"65.7285","TLE_LINE2":"2 47601  53.0561 240.1086 0001593  65.7285 294.3870 15.06391081 43411","PERIOD":"95.593"},{"INCLINATION":"53.0546","APOAPSIS":"548.391","NORAD_CAT_ID":"47602","MEAN_MOTION_DDOT":"0.0000000000000","BSTAR":"0.00010044000000","REV_AT_EPOCH":"4327","GP_ID":"189711888","PERIOD":"95.592","TLE_LINE2":"2 47602  53.0546 250.0078 0001678  60.7989 299.3167 15.06395065 43270","ARG_OF_PERICENTER":"60.7989","ELEMENT_SET_NO":"999","MEAN_MOTION_DOT":"0.00001215","OBJECT_TYPE":"PAYLOAD","FILE":"3214514","SITE":"AFETR","REF_FRAME":"TEME","ECCENTRICITY":"0.00016780","RA_OF_ASC_NODE":"250.0078","TLE_LINE1":"1 47602U 21009BG  21317.91862627  .00001215  00000-0  10044-3 0  9997","CLASSIFICATION_TYPE":"U","MEAN_ANOMALY":"299.3167","EPOCH":"2021-11-13T22:02:49.309728","PERIAPSIS":"546.067","OBJECT_NAME":"STARLINK-2007","RCS_SIZE":"LARGE","SEMIMAJOR_AXIS":"6925.364","LAUNCH_DATE":"2021-02-04","OBJECT_ID":"2021-009BG","COUNTRY_CODE":"US","EPHEMERIS_TYPE":"0","MEAN_MOTION":"15.06395065","MEAN_ELEMENT_THEORY":"SGP4","CENTER_NAME":"EARTH","DECAY_DATE":null,"TIME_SYSTEM":"UTC"},{"FILE":"3214514","SITE":"AFETR","REF_FRAME":"TEME","ECCENTRICITY":"0.00015540","RA_OF_ASC_NODE":"279.9534","GP_ID":"189712138","PERIOD":"95.593","TLE_LINE2":"2 47603  53.0552 279.9534 0001554  72.6086 287.5073 15.06391297 42859","ELEMENT_SET_NO":"999","ARG_OF_PERICENTER":"72.6086","MEAN_MOTION_DOT":"-0.00000453","OBJECT_TYPE":"PAYLOAD","NORAD_CAT_ID":"47603","APOAPSIS":"548.316","INCLINATION":"53.0552","MEAN_MOTION_DDOT":"0.0000000000000","BSTAR":"-0.00001154400000","REV_AT_EPOCH":"4285","OBJECT_ID":"2021-009BH","MEAN_MOTION":"15.06391297","COUNTRY_CODE":"US","EPHEMERIS_TYPE":"0","MEAN_ELEMENT_THEORY":"SGP4","CENTER_NAME":"EARTH","DECAY_DATE":null,"TIME_SYSTEM":"UTC","OBJECT_NAME":"STARLINK-2008","SEMIMAJOR_AXIS":"6925.375","RCS_SIZE":"LARGE","LAUNCH_DATE":"2021-02-04","PERIAPSIS":"546.164","TLE_LINE1":"1 47603U 21009BH  21317.93061697 -.00000453  00000-0 -11544-4 0  9990","CLASSIFICATION_TYPE":"U","MEAN_ANOMALY":"287.5073","EPOCH":"2021-11-13T22:20:05.306208"},{"SITE":"AFETR","FILE":"3214305","REF_FRAME":"TEME","ECCENTRICITY":"0.00017840","RA_OF_ASC_NODE":"251.7769","GP_ID":"189685360","TLE_LINE2":"2 47604  53.0542 251.7769 0001784  65.4240 294.6935 15.06358123 43829","PERIOD":"95.595","ARG_OF_PERICENTER":"65.4240","ELEMENT_SET_NO":"999","MEAN_MOTION_DOT":"0.00005023","OBJECT_TYPE":"PAYLOAD","INCLINATION":"53.0542","APOAPSIS":"548.577","NORAD_CAT_ID":"47604","MEAN_MOTION_DDOT":"0.0000000000000","BSTAR":"0.00035624000000","REV_AT_EPOCH":"4382","OBJECT_ID":"2021-009BJ","COUNTRY_CODE":"US","EPHEMERIS_TYPE":"0","MEAN_MOTION":"15.06358123","MEAN_ELEMENT_THEORY":"SGP4","CENTER_NAME":"EARTH","DECAY_DATE":null,"TIME_SYSTEM":"UTC","OBJECT_NAME":"STARLINK-2021","SEMIMAJOR_AXIS":"6925.477","RCS_SIZE":"LARGE","LAUNCH_DATE":"2021-02-04","PERIAPSIS":"546.106","TLE_LINE1":"1 47604U 21009BJ  21317.52793560  .00005023  00000-0  35624-3 0  9997","CLASSIFICATION_TYPE":"U","MEAN_ANOMALY":"294.6935","EPOCH":"2021-11-13T12:40:13.635840"}];
